0 COSMOS 2251 DEB
1 36371U 93036AYY 13280.37415513  .00001357  00000-0  49499-3 0  2294
2 36371 074.0300 161.3434 0024674 202.7508 278.7435 14.33871425213634
0 COSMOS 2251 DEB
1 36371U 93036AYY 13283.01414705  .00001837  00000-0  66651-3 0  2304
2 36371 074.0299 156.5124 0024553 196.9353 226.5948 14.33884454214010
0 COSMOS 2251 DEB
1 36371U 93036AYY 13285.32789500  .00001769  00000-0  64217-3 0  2319
2 36371 074.0296 152.2780 0024459 191.9057 290.3795 14.33891702214348
0 COSMOS 2251 DEB
1 36371U 93036AYY 13289.01516135  .00002408  00000-0  87023-3 0  2323
2 36371 074.0290 145.5299 0024325 183.9574 244.4798 14.33910407214874
0 COSMOS 2251 DEB
1 36371U 93036AYY 13291.25745490  .00002736  00000-0  98731-3 0  2333
2 36371 074.0290 141.4272 0024315 179.2818 299.4347 14.33917165215192
0 COSMOS 2251 DEB
1 36371U 93036AYY 13293.28144796  .00002622  00000-0  94662-3 0  2344
2 36371 074.0289 137.7212 0024183 174.7970 307.8239 14.33927777215480
